{"type":"FeatureCollection","features":[{"type":"Feature","geometry":{"type":"MultiLineString","coordinates":[[[693658.7843971658,6094030.604462194],[693648.6666831856,6093965.855109103],[693639.1130364819,6093901.093635244],[693637.2646708961,6093887.06129262],[693635.8167699185,6093879.812214617],[693634.2078304195,6093876.506319173],[693632.3230143166,6093874.33832437],[693627.1643649396,6093873.971882584],[693611.0022225538,6093876.5162574295],[693595.4753731661,6093878.980377603],[693560.6766172664,6093884.532713084],[693524.7904745191,6093891.151440868],[693511.3024643818,6093892.361998988],[693492.7279820128,6093890.208061788],[693473.9253919071,6093884.208042944],[693456.6534694575,6093873.625051162],[693444.4295601588,6093862.068116138],[693428.8781893132,6093841.326973338],[693356.3162683914,6093745.577625005],[693320.5970800293,6093698.412076813],[693306.9835066838,6093680.592321989],[693299.466963028,6093670.410308566],[693294.1518804106,6093660.192197546],[693287.7725417553,6093645.324725663],[693286.3215012146,6093637.065777376],[693286.0136882886,6093628.649150113],[693286.153297003,6093619.878900543],[693287.7559093252,6093611.01070389],[693323.2695375781,6093531.887830823],[693352.3333309008,6093467.740840603],[693385.3228648135,6093394.453716377],[693398.9985039692,6093372.752722373],[693415.8346514406,6093359.6734895725],[693433.6527352915,6093351.223138498],[693449.41371711,6093346.989663364],[693478.8348742877,6093341.974737378],[693521.2096350663,6093335.9048473025],[693540.4578314188,6093333.039077112],[693545.2044352539,6093331.605449075],[693550.037797368,6093327.007077355],[693551.0048243009,6093322.458407883],[693550.3048365118,6093316.980013394],[693546.9305876495,6093295.866708389],[693543.7541175551,6093274.216461445],[693529.7913657695,6093186.710226955],[693522.8993515514,6093142.877500524],[693516.4729152428,6093099.112461308],[693468.5774923494,6092797.003423173]]]},"properties":{"width":3,"mapLabSource":"expansion"},"id":"1206562797"},{"type":"Feature","geometry":{"type":"MultiLineString","coordinates":[[[693463.3592753578,6092797.6481074635],[693482.6582995648,6092924.392771321],[693510.4665111132,6093106.710217617],[693528.5185943464,6093217.711564537],[693540.9278683461,6093299.4025946185],[693543.084578446,6093315.51472434],[693543.8653279468,6093322.212145636],[693540.6365500173,6093329.4950365145],[693526.1777279886,6093333.767313118],[693488.0428597955,6093338.536579776],[693454.2797916061,6093343.489328198],[693429.0184506929,6093348.137487831],[693412.493900971,6093356.227147904],[693396.2110518848,6093370.071353301],[693380.4489608132,6093393.348589344],[693359.6495296225,6093441.426430299],[693329.484653396,6093506.8400174305],[693320.0377948235,6093527.584586529],[693305.9517485655,6093559.026994135],[693295.0489052847,6093581.900224622],[693284.3461676363,6093606.045394536],[693281.7415180472,6093616.988160876],[693280.437503777,6093630.022725828],[693281.165805851,6093637.253973849],[693286.9069858027,6093653.766504195],[693294.9514111518,6093669.896726079],[693306.3379313012,6093685.711146626],[693336.3763931477,6093723.865055216],[693359.1247687505,6093754.329055117],[693400.772552814,6093808.891634838],[693430.7739518676,6093849.09916185],[693447.3956635637,6093870.949317816],[693458.4387861482,6093880.489584935],[693467.7266168179,6093886.2609507395],[693481.7929737782,6093892.495773468],[693492.9548152778,6093894.842077332],[693503.2359196198,6093896.008703098],[693520.3599110853,6093895.45258783],[693554.6967749018,6093889.577391379],[693623.0660345332,6093878.909623545],[693626.6170983326,6093878.999845908],[693628.711023107,6093879.887103157],[693630.471396959,6093881.769227465],[693632.0530927149,6093884.653991471],[693633.3342428184,6093888.799261775],[693634.6205675491,6093898.271372639],[693640.0010144042,6093937.786144307],[693645.6819524856,6093976.883841728],[693650.3748343983,6094004.294557398],[693654.8054643031,6094030.934055552]]]},"properties":{"width":3,"mapLabSource":"expansion"},"id":"1206563461"},{"type":"Feature","geometry":{"type":"MultiLineString","coordinates":[[[693672.4749968392,6094078.652552359],[693666.309845503,6094037.778516576],[693661.3113654648,6094038.518430319],[693667.4676360472,6094079.403756564],[693672.4749968392,6094078.652552359]]]},"properties":{"width":3,"mapLabSource":"expansion"},"id":"1299054394"},{"type":"Feature","geometry":{"type":"MultiLineString","coordinates":[[[693667.5422872195,6094088.813100953],[693667.253570459,6094086.810596345],[693666.774678721,6094083.580318075],[693666.3496061298,6094080.737307603],[693662.5007219717,6094055.3393743485],[693659.4005927218,6094034.719617637],[693658.7843971658,6094030.604462194]]]},"properties":{"width":3,"mapLabSource":"expansion"},"id":"1257686080"},{"type":"Feature","geometry":{"type":"MultiLineString","coordinates":[[[693660.925137613,6094080.287803263],[693654.7688966764,6094039.40247385],[693649.770653384,6094040.153473819],[693655.9177753555,6094081.039000977],[693660.925137613,6094080.287803263]]]},"properties":{"width":3,"mapLabSource":"expansion"},"id":"1299054393"},{"type":"Feature","geometry":{"type":"MultiLineString","coordinates":[[[693654.8054643031,6094030.934055552],[693655.4560927999,6094035.38140622],[693658.4614387642,6094055.82563398],[693662.5415311919,6094081.396168359],[693662.993415202,6094084.216407558],[693663.5290274711,6094087.545348272],[693663.8134557649,6094089.348184368]]]},"properties":{"width":3,"mapLabSource":"expansion"},"id":"1257686079"},{"type":"Feature","geometry":{"type":"MultiLineString","coordinates":[[[693663.8134557649,6094089.348184368],[693668.4494328797,6094119.190536283],[693668.7788235422,6094121.391928062],[693669.0888305305,6094123.538247004],[693669.4076957986,6094125.6732779015],[693670.8678997497,6094134.764324912],[693672.2519107875,6094144.545072444],[693673.4833684342,6094152.731010494],[693674.3153728086,6094157.995703412]]]},"properties":{"width":3,"mapLabSource":"expansion"},"id":"1310009841"},{"type":"Feature","geometry":{"type":"MultiLineString","coordinates":[[[693673.6403442496,6094128.256957741],[693673.1358276216,6094125.104914734],[693672.4801408871,6094120.846336498],[693672.1935665051,6094118.943666346],[693667.5422872195,6094088.813100953]]]},"properties":{"width":3,"mapLabSource":"expansion"},"id":"1310009842"},{"type":"Feature","geometry":{"type":"MultiLineString","coordinates":[[[693667.5422872195,6094088.813100953],[693667.9746558451,6094092.843420941],[693668.2172812643,6094096.089870617],[693668.2025885276,6094099.2197700245],[693668.1242368543,6094104.470719126],[693668.0813174674,6094109.6765160365],[693668.22565482,6094114.279009726],[693668.3553570111,6094116.928602247],[693668.4494328797,6094119.190536283]]]},"properties":{"width":3,"mapLabSource":"expansion"},"id":"1114848177"},{"type":"Feature","geometry":{"type":"MultiLineString","coordinates":[[[693672.1935665051,6094118.943666346],[693671.6559556847,6094116.369420342],[693671.155162605,6094114.238296282],[693670.288936391,6094111.193900997],[693669.2288285296,6094108.0204953365],[693668.1242368543,6094104.470719126],[693666.6214009908,6094100.174843311],[693665.7034576022,6094097.26473206],[693665.0035443215,6094094.760557938],[693663.8134557649,6094089.348184368]]]},"properties":{"width":3,"mapLabSource":"expansion"},"id":"1114848176"},{"type":"Feature","geometry":{"type":"MultiLineString","coordinates":[[[693674.3153728086,6094157.995703412],[693675.2110528343,6094163.259028863],[693690.8388016266,6094265.478323876],[693691.283031616,6094268.365313226]]]},"properties":{"width":3,"mapLabSource":"expansion"},"id":"1310035196"},{"type":"Feature","geometry":{"type":"MultiLineString","coordinates":[[[693703.3722543272,6094321.91898416],[693702.8325708341,6094318.401469852],[693701.5219156953,6094309.49587784],[693699.9628403191,6094300.040730124],[693698.289304899,6094288.645922903],[693695.537560689,6094270.693267282],[693683.4496499922,6094191.769956688],[693679.8295981729,6094168.131667607],[693679.0047808256,6094162.778038158],[693678.1799641891,6094157.424408633],[693677.3005698047,6094152.071951099],[693676.015483152,6094143.931556275],[693674.5869389304,6094134.196156649],[693673.6403442496,6094128.256957741]]]},"properties":{"width":3,"mapLabSource":"expansion"},"id":"1310035195"},{"type":"Feature","geometry":{"type":"MultiLineString","coordinates":[[[693691.283031616,6094268.365313226],[693691.7179270543,6094271.24140521],[693694.4325628056,6094289.161564989],[693696.2315393819,6094300.464896141],[693697.7381315106,6094310.442768619],[693699.0504944725,6094319.004292037],[693699.5705539603,6094322.455641039]]]},"properties":{"width":3,"mapLabSource":"expansion"},"id":"1364473348"},{"type":"Feature","geometry":{"type":"MultiLineString","coordinates":[[[693699.5705539603,6094322.455641039],[693725.0625254901,6094490.705888925],[693726.8512711417,6094501.953945954],[693737.7558093166,6094570.670443794],[693738.2603601794,6094573.822483202]]]},"properties":{"width":3,"mapLabSource":"expansion"},"id":"1310038885"},{"type":"Feature","geometry":{"type":"MultiLineString","coordinates":[[[693749.1224173194,6094618.945934717],[693748.8128608337,6094616.8218038995],[693747.7023401759,6094609.609883724],[693745.6418201446,6094596.303474208],[693742.8935997705,6094577.673787768],[693742.6931215462,6094576.39074762],[693730.978148073,6094501.299320151],[693721.7657279146,6094441.4469184615],[693704.9166717204,6094331.962630358],[693703.9121763548,6094325.4475911325],[693703.3722543272,6094321.91898416]]]},"properties":{"width":3,"mapLabSource":"expansion"},"id":"1310038886"},{"type":"Feature","geometry":{"type":"MultiLineString","coordinates":[[[693738.2603601794,6094573.822483202],[693738.7558144629,6094576.974717969],[693738.9457657485,6094578.191397401],[693741.8433398653,6094596.995441562],[693743.9555764531,6094610.1675670175],[693745.1034346871,6094617.42307673],[693748.9944811221,6094643.497042561],[693751.6759894135,6094661.562171775]]]},"properties":{"width":3,"mapLabSource":"expansion"},"id":"1310780385"},{"type":"Feature","geometry":{"type":"MultiLineString","coordinates":[[[693746.4318711655,6094661.4750504205],[693740.0260759069,6094620.861475488],[693743.5818096849,6094620.307897239],[693749.996479581,6094660.910182258],[693746.4318711655,6094661.4750504205]]]},"properties":{"width":3,"mapLabSource":"expansion"},"id":"1374911596"},{"type":"Feature","geometry":{"type":"MultiLineString","coordinates":[[[693755.5805197118,6094661.145369416],[693752.6390482784,6094642.841672919],[693749.431735643,6094621.058972828],[693749.1224173194,6094618.945934717]]]},"properties":{"width":3,"mapLabSource":"expansion"},"id":"1310780384"},{"type":"Feature","geometry":{"type":"MultiLineString","coordinates":[[[693756.4764778737,6094659.639017498],[693750.4978000538,6094618.150643074],[693754.4808475664,6094617.576784061],[693760.4686406204,6094659.06496124],[693756.4764778737,6094659.639017498]]]},"properties":{"width":3,"mapLabSource":"expansion"},"id":"1374911597"},{"type":"Feature","geometry":{"type":"MultiLineString","coordinates":[[[693799.5548588106,6094946.568657786],[693796.1845911358,6094924.833862931],[693795.3266630822,6094919.214605736],[693791.7182996918,6094896.563806197],[693788.6981103551,6094876.719214262],[693782.3524820892,6094835.105566166]]]},"properties":{"width":3,"mapLabSource":"expansion"},"id":"1310780388"},{"type":"Feature","geometry":{"type":"MultiLineString","coordinates":[[[693778.1347200373,6094835.773255622],[693784.0684504752,6094871.347447047],[693784.9680004211,6094877.209962729],[693788.0188091254,6094897.209266959],[693789.1346202164,6094904.665221287],[693791.4603160503,6094919.719380253],[693795.7174597807,6094947.150496149]]]},"properties":{"width":3,"mapLabSource":"expansion"},"id":"1310780389"},{"type":"Feature","geometry":{"type":"MultiLineString","coordinates":[[[693782.3524820892,6094835.105566166],[693755.5805197118,6094661.145369416]]]},"properties":{"width":3,"mapLabSource":"expansion"},"id":"1310780386"},{"type":"Feature","geometry":{"type":"MultiLineString","coordinates":[[[693751.6759894135,6094661.562171775],[693755.2219593943,6094684.280910615],[693778.1347200373,6094835.773255622]]]},"properties":{"width":3,"mapLabSource":"expansion"},"id":"1310780387"},{"type":"Feature","geometry":{"type":"MultiLineString","coordinates":[[[693952.8359270284,6095950.267825769],[693941.7680671889,6095879.146817384],[693900.0949601061,6095608.778740006],[693867.0002597109,6095386.401771329],[693866.2066263921,6095381.236148072]]]},"properties":{"width":3,"mapLabSource":"expansion"},"id":"1310780394"},{"type":"Feature","geometry":{"type":"MultiLineString","coordinates":[[[693870.3888548302,6095431.852165211],[693897.4366682534,6095609.179895913],[693938.9928500983,6095879.617080084],[693949.249226725,6095946.0167688]]]},"properties":{"width":3,"mapLabSource":"expansion"},"id":"1310780395"},{"type":"Feature","geometry":{"type":"MultiLineString","coordinates":[[[693872.7949201771,6095417.17355571],[693866.901393069,6095376.293793056],[693870.9846107169,6095375.706654286],[693876.8781563137,6095416.586415082],[693872.7949201771,6095417.17355571]]]},"properties":{"width":3,"mapLabSource":"expansion"},"id":"1374911599"},{"type":"Feature","geometry":{"type":"MultiLineString","coordinates":[[[693862.6719248749,6095418.789391064],[693856.2718758729,6095377.631964926],[693860.1547078034,6095377.038038791],[693866.5638721827,6095418.195267474],[693862.6719248749,6095418.789391064]]]},"properties":{"width":3,"mapLabSource":"expansion"},"id":"1374911598"},{"type":"Feature","geometry":{"type":"MultiLineString","coordinates":[[[693846.3121491596,6095276.700541585],[693852.9735610484,6095320.282778304],[693853.8947075936,6095326.300193835],[693856.4634519815,6095342.492191605],[693857.0017925602,6095345.943140611],[693857.8257698269,6095351.674100634],[693858.1152604466,6095353.709877104],[693861.4297740298,6095374.957547866],[693863.2036337027,6095386.771891752],[693870.3888548302,6095431.852165211]]]},"properties":{"width":3,"mapLabSource":"expansion"},"id":"1310780393"},{"type":"Feature","geometry":{"type":"MultiLineString","coordinates":[[[693866.2066263921,6095381.236148072],[693865.762792656,6095378.371352585],[693865.1498002892,6095374.41150884],[693861.8711917817,6095353.140871775],[693860.6863697658,6095345.44225554],[693857.705928171,6095325.763294974],[693856.9441238282,6095320.807845527]]]},"properties":{"width":3,"mapLabSource":"expansion"},"id":"1310780392"},{"type":"Feature","geometry":{"type":"MultiLineString","coordinates":[[[693856.9441238282,6095320.807845527],[693843.5665249459,6095233.211733953],[693835.472265888,6095180.548975029],[693818.109430754,6095068.001799431],[693799.5548588106,6094946.568657786]]]},"properties":{"width":3,"mapLabSource":"expansion"},"id":"1310780390"},{"type":"Feature","geometry":{"type":"MultiLineString","coordinates":[[[693795.7174597807,6094947.150496149],[693814.3710976604,6095068.537122798],[693831.651294168,6095181.052784577],[693846.3121491596,6095276.700541585]]]},"properties":{"width":3,"mapLabSource":"expansion"},"id":"1310780391"}],"crs":{"type":"name","properties":{"name":"urn:ogc:def:crs:EPSG::28355"}}}
