{"type":"FeatureCollection","features":[{"type":"Feature","geometry":{"type":"MultiLineString","coordinates":[[[692504.7237914389,6093910.525357094],[692494.3137625686,6093914.542788861],[692441.9744698696,6093930.022135408],[692412.5847443793,6093926.091270337],[692392.3076219399,6093909.882608988],[692373.2434863113,6093874.727764725],[692327.4090793661,6093808.228718535],[692289.0027870595,6093768.472453052],[692266.3144632473,6093753.626538457],[692226.4435357413,6093734.235417888],[692200.1480838363,6093723.7079488365],[692158.190806042,6093711.988642383],[692080.3762282557,6093675.545586128],[692044.9331892218,6093640.543683792],[691947.3896424178,6093489.900758455],[691903.4190832388,6093393.193859269],[691899.1765465142,6093354.048421558],[691862.4388362914,6093259.550130079],[691854.1072626987,6093168.382026556],[691635.6549680713,6092952.841228267],[691489.8764034435,6092968.710463477],[691229.5488574663,6092899.699842738],[691203.5584377781,6092854.113515053],[691223.0133902533,6092803.014586929],[691266.816251038,6092647.496305807],[691257.0443924586,6092499.663175648]]]},"properties":{"mapLabSource":"base"},"id":""},{"type":"Feature","geometry":{"type":"MultiLineString","coordinates":[[[693165.6104564795,6095071.790152982],[693218.7314726794,6095061.545897138],[693231.0508555961,6095055.440358117],[693239.1495851036,6095046.03926616],[693241.8434726598,6095035.042365473],[693241.1077297551,6095022.063177122]]]},"properties":{"mapLabSource":"base"},"id":""},{"type":"Feature","geometry":{"type":"MultiLineString","coordinates":[[[693478.7852243291,6095022.5966617195],[693369.3918053971,6095038.3928788155],[693326.4307190977,6095045.704126015],[693311.424668068,6095048.18376107],[693296.1166769586,6095051.525627977],[693284.8677009512,6095052.39918248],[693271.6548153023,6095052.049719315],[693257.6720578063,6095044.963448361]]]},"properties":{"mapLabSource":"base"},"id":""},{"type":"Feature","geometry":{"type":"MultiLineString","coordinates":[[[693134.1512403183,6095075.44033983],[693165.6104564795,6095071.790152982]]]},"properties":{"mapLabSource":"base"},"id":""},{"type":"Feature","geometry":{"type":"MultiLineString","coordinates":[[[693286.2030145773,6095242.560081671],[693282.6227922521,6095229.279055625]]]},"properties":{"mapLabSource":"base"},"id":""},{"type":"Feature","geometry":{"type":"MultiLineString","coordinates":[[[692962.4338209544,6095101.41178485],[692977.1050359304,6095099.321286326]]]},"properties":{"mapLabSource":"base"},"id":""},{"type":"Feature","geometry":{"type":"MultiLineString","coordinates":[[[692806.7618133109,6095123.585958965],[692962.4338209544,6095101.41178485]]]},"properties":{"mapLabSource":"base"},"id":""},{"type":"Feature","geometry":{"type":"MultiLineString","coordinates":[[[692977.1050359304,6095099.321286326],[693023.6210049512,6095092.698441832],[693134.1512403183,6095075.44033983]]]},"properties":{"mapLabSource":"base"},"id":""},{"type":"Feature","geometry":{"type":"MultiLineString","coordinates":[[[692911.4680501077,6094217.265454583],[692895.6554477899,6094206.58076107],[692852.7658483781,6094182.810398656],[692841.6726857807,6094178.433795301],[692813.3195608784,6094164.8823192],[692793.4936424794,6094158.422659529],[692766.0314449467,6094142.293942135],[692753.1720841054,6094131.294739739],[692740.5926002498,6094120.540694053],[692726.3230215018,6094104.5857130615],[692725.244620596,6094103.380891731],[692723.6970305982,6094101.637277549],[692722.1265678536,6094099.894151911],[692717.3909190977,6094094.600177847],[692704.4370006246,6094073.100955788],[692692.9500995637,6094042.789268833],[692681.242528802,6094006.073195422],[692678.6089623426,6093977.776913212],[692671.8636256357,6093960.17277848],[692664.6544433376,6093949.062055606]]]},"properties":{"mapLabSource":"base"},"id":""},{"type":"Feature","geometry":{"type":"MultiLineString","coordinates":[[[692664.6544433376,6093949.062055606],[692658.8034132805,6093939.754810458],[692643.4660103073,6093918.427364487],[692613.2392327359,6093896.738880111],[692598.5097610415,6093888.867699238],[692574.6010333316,6093883.350586665],[692562.2941352973,6093884.264527621],[692539.971144961,6093896.926800301],[692509.7548337001,6093908.585464355],[692504.7237914389,6093910.525357094]]]},"properties":{"mapLabSource":"base"},"id":""},{"type":"Feature","geometry":{"type":"MultiLineString","coordinates":[[[693275.1886802234,6094490.65141045],[693216.5490235842,6094440.039535997],[693180.2835354259,6094401.1803233065],[693152.6510442377,6094372.182315728],[693112.0894325272,6094333.2288216],[693104.8566740591,6094321.411952669],[693094.6708434498,6094303.491049627],[693081.8576525141,6094301.449153034],[693035.5395006652,6094295.380358443],[692983.9646168047,6094274.289402423],[692971.3845986353,6094267.098340116],[692957.6788097637,6094257.559328572],[692944.6776265621,6094246.368066873],[692911.4680501077,6094217.265454583]]]},"properties":{"mapLabSource":"base"},"id":""},{"type":"Feature","geometry":{"type":"MultiLineString","coordinates":[[[693208.1815823037,6095515.794753329],[693203.8725633316,6095504.817607477],[693191.4997059251,6095479.594977941],[693185.3664259654,6095448.620315833],[693184.8169765605,6095422.958480593],[693194.2509019421,6095389.315686418],[693216.7445438728,6095345.291201651],[693243.744008395,6095292.593660226],[693249.1901524062,6095282.933121172],[693261.0527142914,6095261.898275894],[693279.9668774256,6095233.50326716],[693282.6227922521,6095229.279055625],[693297.3492955533,6095205.903795276],[693304.5580658346,6095177.750201076],[693307.0439225073,6095148.144353744],[693301.6957769063,6095117.1529196445],[693282.1200787983,6095078.689805058],[693257.6720578063,6095044.963448361],[693249.9211192298,6095034.274005756],[693241.1077297551,6095022.063177122],[693223.356228112,6094997.513940772],[693215.7948689562,6094983.918176984],[693210.994516576,6094967.444757604],[693206.9934604722,6094926.313119475],[693206.3894316343,6094861.779210726],[693211.0663768894,6094825.122024877],[693235.1546925463,6094782.616643125],[693267.0173060622,6094738.381873638],[693280.7448247194,6094717.911610576],[693288.4272523997,6094695.152325198],[693292.7629805165,6094663.95337178],[693305.4551892461,6094636.472893989],[693321.833443661,6094606.932056087],[693324.9881707383,6094570.112039089],[693315.0684427962,6094536.52098841],[693296.4775806693,6094508.371416066],[693275.1886802234,6094490.65141045]]]},"properties":{"mapLabSource":"base"},"id":""},{"type":"Feature","geometry":{"type":"MultiLineString","coordinates":[[[694046.7084379054,6092970.641791573],[694034.1353618046,6092946.019927923],[694030.3331275851,6092936.97638014],[694028.0799946547,6092929.3878303915],[694027.408445631,6092919.802492809],[694028.8013371147,6092908.684383258],[694030.7158699569,6092900.541027484],[694032.3672552102,6092891.156850164],[694033.04856877,6092879.579645922],[694031.9393995319,6092871.278117888],[694025.9613096261,6092847.24916848]]]},"properties":{"mapLabSource":"base"},"id":""},{"type":"Feature","geometry":{"type":"MultiLineString","coordinates":[[[693266.5188108998,6093082.505384006],[693274.4971208943,6093073.627611378],[693313.5518822043,6093021.526544783]]]},"properties":{"mapLabSource":"base"},"id":""},{"type":"Feature","geometry":{"type":"MultiLineString","coordinates":[[[693223.5299449657,6093112.281844843],[693248.4080494359,6093099.041997287],[693259.3154025604,6093090.529351335],[693260.4996530166,6093089.201675769]]]},"properties":{"mapLabSource":"base"},"id":""},{"type":"Feature","geometry":{"type":"MultiLineString","coordinates":[[[693260.4996530166,6093089.201675769],[693266.5188108998,6093082.505384006]]]},"properties":{"mapLabSource":"base"},"id":""},{"type":"Feature","geometry":{"type":"MultiLineString","coordinates":[[[693318.972177313,6093014.294230691],[693331.8889092124,6092997.059560372]]]},"properties":{"mapLabSource":"base"},"id":""},{"type":"Feature","geometry":{"type":"MultiLineString","coordinates":[[[693313.5518822043,6093021.526544783],[693318.972177313,6093014.294230691]]]},"properties":{"mapLabSource":"base"},"id":""},{"type":"Feature","geometry":{"type":"MultiLineString","coordinates":[[[691928.8703910967,6093854.7090715775],[691926.8573205554,6093853.663585457],[691923.0260462693,6093851.410331193],[691920.3271016172,6093850.035267977],[691917.5201147518,6093849.676418044],[691913.4553203026,6093850.0698890425],[691881.2654070723,6093857.182541759],[691860.8910512888,6093861.80192725]]]},"properties":{"mapLabSource":"expansion"},"id":""},{"type":"Feature","geometry":{"type":"MultiLineString","coordinates":[[[691856.5855141841,6093863.428353533],[691853.8294540071,6093865.82178195],[691850.7561074282,6093869.7939916]]]},"properties":{"mapLabSource":"expansion"},"id":""},{"type":"Feature","geometry":{"type":"MultiLineString","coordinates":[[[691860.8910512888,6093861.80192725],[691856.5855141841,6093863.428353533]]]},"properties":{"mapLabSource":"expansion"},"id":""},{"type":"Feature","geometry":{"type":"MultiLineString","coordinates":[[[691947.69632097,6093981.968619489],[691946.3042588646,6093980.714576796]]]},"properties":{"mapLabSource":"expansion"},"id":""},{"type":"Feature","geometry":{"type":"MultiLineString","coordinates":[[[691943.8663242605,6093976.552673954],[691941.8696288607,6093977.711407732],[691939.7614655483,6093977.216762967],[691937.0352215637,6093977.786395006]]]},"properties":{"mapLabSource":"expansion"},"id":""},{"type":"Feature","geometry":{"type":"MultiLineString","coordinates":[[[691951.2030692324,6093984.740382534],[691950.3320428117,6093982.879924204]]]},"properties":{"mapLabSource":"expansion"},"id":""},{"type":"Feature","geometry":{"type":"MultiLineString","coordinates":[[[691587.2874094966,6094228.050625839],[691615.7684867871,6094237.3056260245],[691640.3522949399,6094233.304362029],[691658.3774488361,6094220.7543889675],[691679.000488448,6094221.692800824],[691691.7124144012,6094210.743988574],[691707.9116687223,6094213.497217886],[691713.6646499737,6094209.979717599],[691741.195368689,6094193.5439318875],[691772.9475505372,6094177.622919832],[691793.9642713874,6094162.283570653],[691796.1960324642,6094148.143644718],[691827.4247597569,6094118.382938081],[691831.7993846091,6094087.72364733],[691865.9249420665,6094077.97480084],[691892.467215111,6094060.28516715],[691938.7567501597,6094032.510444493],[691932.4756438178,6094004.394046521]]]},"properties":{"mapLabSource":"expansion"},"id":""},{"type":"Feature","geometry":{"type":"MultiLineString","coordinates":[[[691908.3119294727,6094101.230136616],[691910.659749365,6094091.478226694],[691911.2555908991,6094089.009828555],[691911.0361368326,6094085.507657426],[691915.4909392196,6094066.157790223]]]},"properties":{"mapLabSource":"expansion"},"id":""},{"type":"Feature","geometry":{"type":"MultiLineString","coordinates":[[[691635.9688336626,6094491.20086238],[691644.452196853,6094489.0858148355],[691648.1381040261,6094489.15632994],[691651.3666498922,6094490.6783626275],[691659.2099601608,6094497.571879508],[691666.166505878,6094501.144836016],[691669.5546308157,6094503.714591261],[691672.5380981637,6094507.344064024],[691676.0218021343,6094511.53962616],[691677.7353247595,6094512.842692617],[691681.2012750829,6094513.689930459],[691684.7164850358,6094513.62452964],[691692.2503581387,6094510.980801225],[691698.3495683551,6094510.823270816],[691706.2650332599,6094513.213074859],[691712.6211492172,6094516.529002462],[691714.9018750396,6094517.95953578],[691720.6122826413,6094523.196081541]]]},"properties":{"mapLabSource":"expansion"},"id":""},{"type":"Feature","geometry":{"type":"MultiLineString","coordinates":[[[691936.4291589542,6094268.2997134905],[691945.4161209501,6094263.336548308],[691956.1824675911,6094264.205042839],[691962.2304610721,6094261.648506137]]]},"properties":{"mapLabSource":"expansion"},"id":""},{"type":"Feature","geometry":{"type":"MultiLineString","coordinates":[[[691764.1290119113,6094301.721753654],[691768.2414233414,6094299.253015535],[691772.3136263364,6094299.557112399],[691775.7866445391,6094297.511251809]]]},"properties":{"mapLabSource":"expansion"},"id":""},{"type":"Feature","geometry":{"type":"MultiLineString","coordinates":[[[691761.6324439787,6094303.411978446],[691764.1290119113,6094301.721753654]]]},"properties":{"mapLabSource":"expansion"},"id":""},{"type":"Feature","geometry":{"type":"MultiLineString","coordinates":[[[691758.9763295144,6094313.38433209],[691757.8504016994,6094309.9386423975],[691759.0705867687,6094305.977974128],[691761.6324439787,6094303.411978446]]]},"properties":{"mapLabSource":"expansion"},"id":""},{"type":"Feature","geometry":{"type":"MultiLineString","coordinates":[[[691962.2304610721,6094261.648506137],[691968.9990557187,6094256.751135647]]]},"properties":{"mapLabSource":"expansion"},"id":""},{"type":"Feature","geometry":{"type":"MultiLineString","coordinates":[[[691695.6183641346,6094526.601603524],[691692.4336987331,6094526.427434843],[691687.7635872045,6094526.349947089],[691680.9887617182,6094525.945106672],[691676.7877941951,6094526.406458149],[691674.6065991628,6094526.787679376],[691672.3615590124,6094526.677253785],[691667.682827878,6094524.75815413],[691664.17725106,6094524.200113181],[691660.114005143,6094525.03991008],[691657.6580407388,6094525.054887987],[691655.1986429943,6094526.344304239]]]},"properties":{"mapLabSource":"expansion"},"id":""},{"type":"Feature","geometry":{"type":"MultiLineString","coordinates":[[[693680.4118328578,6096502.283100909],[693685.3276521441,6096478.913197525],[693686.042000678,6096468.823752313],[693685.9419972484,6096461.319147021],[693682.3131009507,6096441.546453283],[693676.8126723696,6096427.004460851],[693667.9431457823,6096414.395168571],[693654.0415373596,6096400.889218731],[693623.9423374129,6096378.168250006],[693583.8762359638,6096351.065764688],[693565.6542707201,6096330.7037335895],[693554.290215464,6096312.055007624],[693546.693658486,6096291.548786771],[693538.9836829987,6096267.175344819],[693536.209947354,6096252.751550098],[693536.3625172226,6096238.162680153],[693539.2232582376,6096224.622676975],[693548.303141522,6096194.04749074],[693564.0501853261,6096156.659730921],[693571.344403799,6096131.769148015],[693572.2075527196,6096112.607027924],[693570.0219058483,6096090.031336757],[693565.5901743453,6096073.364108875],[693559.7686238376,6096060.196351098],[693535.0612741739,6096023.787833577],[693510.4457774988,6095982.047219499],[693488.7547286344,6095952.503937185],[693471.5527203284,6095929.850201543],[693433.2973891454,6095903.824608498],[693374.6310692749,6095865.938986643],[693353.4564902716,6095846.57938195],[693331.59600927,6095811.225629881],[693317.1553641327,6095781.396420934],[693308.8583447015,6095714.618138706],[693304.4905953131,6095684.5266112955],[693300.3921279534,6095670.921817977],[693295.9135787565,6095654.888032762],[693279.415249472,6095609.475444845],[693275.2929084473,6095598.671066195],[693273.0471466035,6095592.486808509],[693263.1846306482,6095578.335719024],[693236.5945681767,6095556.143138623],[693221.6857570233,6095539.690854082],[693212.2091397172,6095523.959409819],[693208.1815823037,6095515.794753329]]]},"properties":{"mapLabSource":"expansion"},"id":""},{"type":"Feature","geometry":{"type":"MultiLineString","coordinates":[[[693154.8295449433,6096058.565833159],[693157.8840916249,6096038.017412176],[693157.4829627423,6095975.432716856],[693155.8702781983,6095922.901525326],[693154.5330983346,6095860.429875467],[693153.4370805982,6095783.562831121],[693158.4798127331,6095759.669619098],[693167.6205453596,6095745.09302162],[693180.6944904356,6095733.204212258],[693197.7241254698,6095723.984088557],[693246.2667604805,6095707.466060555],[693281.0213579002,6095696.210394414],[693293.1311558484,6095690.96510625],[693298.5364077656,6095683.658846023],[693300.3921279534,6095670.921817977]]]},"properties":{"mapLabSource":"expansion"},"id":""},{"type":"Feature","geometry":{"type":"MultiLineString","coordinates":[[[693297.9693295461,6095608.752419541],[693292.6447437438,6095605.2200864125],[693287.5745425235,6095602.166006861],[693282.8470775264,6095598.016245155],[693273.0471466035,6095592.486808509]]]},"properties":{"mapLabSource":"expansion"},"id":""},{"type":"Feature","geometry":{"type":"MultiLineString","coordinates":[[[693233.5238963815,6095290.226590106],[693242.8369072168,6095286.929545766],[693249.1901524062,6095282.933121172]]]},"properties":{"mapLabSource":"expansion"},"id":""}],"crs":{"type":"name","properties":{"name":"urn:ogc:def:crs:EPSG::28355"}}}
