{"type":"FeatureCollection","features":[{"type":"Feature","geometry":{"type":"MultiLineString","coordinates":[[[692504.7237914389,6093910.525357094],[692494.3137625686,6093914.542788861],[692441.9744698696,6093930.022135408],[692412.5847443793,6093926.091270337],[692392.3076219399,6093909.882608988],[692373.2434863113,6093874.727764725],[692327.4090793661,6093808.228718535],[692289.0027870595,6093768.472453052],[692266.3144632473,6093753.626538457],[692226.4435357413,6093734.235417888],[692200.1480838363,6093723.7079488365],[692158.190806042,6093711.988642383],[692080.3762282557,6093675.545586128],[692044.9331892218,6093640.543683792],[691947.3896424178,6093489.900758455],[691903.4190832388,6093393.193859269],[691899.1765465142,6093354.048421558],[691862.4388362914,6093259.550130079],[691854.1072626987,6093168.382026556],[691635.6549680713,6092952.841228267],[691489.8764034435,6092968.710463477],[691229.5488574663,6092899.699842738],[691203.5584377781,6092854.113515053],[691223.0133902533,6092803.014586929],[691266.816251038,6092647.496305807],[691257.0443924586,6092499.663175648]]]},"properties":null,"id":""},{"type":"Feature","geometry":{"type":"MultiLineString","coordinates":[[[693165.6104564795,6095071.790152982],[693218.7314726794,6095061.545897138],[693231.0508555961,6095055.440358117],[693239.1495851036,6095046.03926616],[693241.8434726598,6095035.042365473],[693241.1077297551,6095022.063177122]]]},"properties":null,"id":""},{"type":"Feature","geometry":{"type":"MultiLineString","coordinates":[[[693478.7852243291,6095022.5966617195],[693369.3918053971,6095038.3928788155],[693326.4307190977,6095045.704126015],[693311.424668068,6095048.18376107],[693296.1166769586,6095051.525627977],[693284.8677009512,6095052.39918248],[693271.6548153023,6095052.049719315],[693257.6720578063,6095044.963448361]]]},"properties":null,"id":""},{"type":"Feature","geometry":{"type":"MultiLineString","coordinates":[[[693134.1512403183,6095075.44033983],[693165.6104564795,6095071.790152982]]]},"properties":null,"id":""},{"type":"Feature","geometry":{"type":"MultiLineString","coordinates":[[[693286.2030145773,6095242.560081671],[693282.6227922521,6095229.279055625]]]},"properties":null,"id":""},{"type":"Feature","geometry":{"type":"MultiLineString","coordinates":[[[692962.4338209544,6095101.41178485],[692977.1050359304,6095099.321286326]]]},"properties":null,"id":""},{"type":"Feature","geometry":{"type":"MultiLineString","coordinates":[[[692806.7618133109,6095123.585958965],[692962.4338209544,6095101.41178485]]]},"properties":null,"id":""},{"type":"Feature","geometry":{"type":"MultiLineString","coordinates":[[[692977.1050359304,6095099.321286326],[693023.6210049512,6095092.698441832],[693134.1512403183,6095075.44033983]]]},"properties":null,"id":""},{"type":"Feature","geometry":{"type":"MultiLineString","coordinates":[[[692911.4680501077,6094217.265454583],[692895.6554477899,6094206.58076107],[692852.7658483781,6094182.810398656],[692841.6726857807,6094178.433795301],[692813.3195608784,6094164.8823192],[692793.4936424794,6094158.422659529],[692766.0314449467,6094142.293942135],[692753.1720841054,6094131.294739739],[692740.5926002498,6094120.540694053],[692726.3230215018,6094104.5857130615],[692725.244620596,6094103.380891731],[692723.6970305982,6094101.637277549],[692722.1265678536,6094099.894151911],[692717.3909190977,6094094.600177847],[692704.4370006246,6094073.100955788],[692692.9500995637,6094042.789268833],[692681.242528802,6094006.073195422],[692678.6089623426,6093977.776913212],[692671.8636256357,6093960.17277848],[692664.6544433376,6093949.062055606]]]},"properties":null,"id":""},{"type":"Feature","geometry":{"type":"MultiLineString","coordinates":[[[692664.6544433376,6093949.062055606],[692658.8034132805,6093939.754810458],[692643.4660103073,6093918.427364487],[692613.2392327359,6093896.738880111],[692598.5097610415,6093888.867699238],[692574.6010333316,6093883.350586665],[692562.2941352973,6093884.264527621],[692539.971144961,6093896.926800301],[692509.7548337001,6093908.585464355],[692504.7237914389,6093910.525357094]]]},"properties":null,"id":""},{"type":"Feature","geometry":{"type":"MultiLineString","coordinates":[[[693275.1886802234,6094490.65141045],[693216.5490235842,6094440.039535997],[693180.2835354259,6094401.1803233065],[693152.6510442377,6094372.182315728],[693112.0894325272,6094333.2288216],[693104.8566740591,6094321.411952669],[693094.6708434498,6094303.491049627],[693081.8576525141,6094301.449153034],[693035.5395006652,6094295.380358443],[692983.9646168047,6094274.289402423],[692971.3845986353,6094267.098340116],[692957.6788097637,6094257.559328572],[692944.6776265621,6094246.368066873],[692911.4680501077,6094217.265454583]]]},"properties":null,"id":""},{"type":"Feature","geometry":{"type":"MultiLineString","coordinates":[[[693208.1815823037,6095515.794753329],[693203.8725633316,6095504.817607477],[693191.4997059251,6095479.594977941],[693185.3664259654,6095448.620315833],[693184.8169765605,6095422.958480593],[693194.2509019421,6095389.315686418],[693216.7445438728,6095345.291201651],[693243.744008395,6095292.593660226],[693249.1901524062,6095282.933121172],[693261.0527142914,6095261.898275894],[693279.9668774256,6095233.50326716],[693282.6227922521,6095229.279055625],[693297.3492955533,6095205.903795276],[693304.5580658346,6095177.750201076],[693307.0439225073,6095148.144353744],[693301.6957769063,6095117.1529196445],[693282.1200787983,6095078.689805058],[693257.6720578063,6095044.963448361],[693249.9211192298,6095034.274005756],[693241.1077297551,6095022.063177122],[693223.356228112,6094997.513940772],[693215.7948689562,6094983.918176984],[693210.994516576,6094967.444757604],[693206.9934604722,6094926.313119475],[693206.3894316343,6094861.779210726],[693211.0663768894,6094825.122024877],[693235.1546925463,6094782.616643125],[693267.0173060622,6094738.381873638],[693280.7448247194,6094717.911610576],[693288.4272523997,6094695.152325198],[693292.7629805165,6094663.95337178],[693305.4551892461,6094636.472893989],[693321.833443661,6094606.932056087],[693324.9881707383,6094570.112039089],[693315.0684427962,6094536.52098841],[693296.4775806693,6094508.371416066],[693275.1886802234,6094490.65141045]]]},"properties":null,"id":""},{"type":"Feature","geometry":{"type":"MultiLineString","coordinates":[[[694046.7084379054,6092970.641791573],[694034.1353618046,6092946.019927923],[694030.3331275851,6092936.97638014],[694028.0799946547,6092929.3878303915],[694027.408445631,6092919.802492809],[694028.8013371147,6092908.684383258],[694030.7158699569,6092900.541027484],[694032.3672552102,6092891.156850164],[694033.04856877,6092879.579645922],[694031.9393995319,6092871.278117888],[694025.9613096261,6092847.24916848]]]},"properties":null,"id":""},{"type":"Feature","geometry":{"type":"MultiLineString","coordinates":[[[693266.5188108998,6093082.505384006],[693274.4971208943,6093073.627611378],[693313.5518822043,6093021.526544783]]]},"properties":null,"id":""},{"type":"Feature","geometry":{"type":"MultiLineString","coordinates":[[[693223.5299449657,6093112.281844843],[693248.4080494359,6093099.041997287],[693259.3154025604,6093090.529351335],[693260.4996530166,6093089.201675769]]]},"properties":null,"id":""},{"type":"Feature","geometry":{"type":"MultiLineString","coordinates":[[[693260.4996530166,6093089.201675769],[693266.5188108998,6093082.505384006]]]},"properties":null,"id":""},{"type":"Feature","geometry":{"type":"MultiLineString","coordinates":[[[693318.972177313,6093014.294230691],[693331.8889092124,6092997.059560372]]]},"properties":null,"id":""},{"type":"Feature","geometry":{"type":"MultiLineString","coordinates":[[[693313.5518822043,6093021.526544783],[693318.972177313,6093014.294230691]]]},"properties":null,"id":""}],"crs":{"type":"name","properties":{"name":"urn:ogc:def:crs:EPSG::28355"}}}